[{"OBJECT_NAME":"STARLINK-31702","OBJECT_ID":"2024-076X","EPOCH":"2026-03-09T04:45:32.583456","MEAN_MOTION":15.27570248,"ECCENTRICITY":0.00016186,"INCLINATION":43.003,"RA_OF_ASC_NODE":12.1073,"ARG_OF_PERICENTER":250.6764,"MEAN_ANOMALY":109.3912,"EPHEMERIS_TYPE":0,"CLASSIFICATION_TYPE":"U","NORAD_CAT_ID":59585,"ELEMENT_SET_NO":999,"REV_AT_EPOCH":10642,"BSTAR":-7.2845953e-5,"MEAN_MOTION_DOT":-2.266e-5,"MEAN_MOTION_DDOT":0},{"OBJECT_NAME":"KUIPER-00204","OBJECT_ID":"2025-301N","EPOCH":"2026-03-09T09:32:32.981280","MEAN_MOTION":15.260884,"ECCENTRICITY":0.00030716,"INCLINATION":51.887,"RA_OF_ASC_NODE":71.6415,"ARG_OF_PERICENTER":354.8934,"MEAN_ANOMALY":5.2016,"EPHEMERIS_TYPE":0,"CLASSIFICATION_TYPE":"U","NORAD_CAT_ID":67145,"ELEMENT_SET_NO":999,"REV_AT_EPOCH":1373,"BSTAR":0.00079568218,"MEAN_MOTION_DOT":0.00020516,"MEAN_MOTION_DDOT":0}]
