STARLINK-31702          
1 59585U 24076X   26068.19829379 -.00002266  00000+0 -72846-4 0  9999
2 59585  43.0030  12.1073 0001618 250.6764 109.3912 15.27570248106423
KUIPER-00204            
1 67145U 25301N   26068.39760395  .00020516  00000+0  79568-3 0  9999
2 67145  51.8870  71.6415 0003071 354.8934   5.2016 15.26088400 13737
